ONEWEB-0674             
1 55833U 23029AP  25276.20693405 -.00000133  00000+0 -39262-3 0  9994
2 55833  87.9060 340.9175 0001450  89.0863 271.0432 13.14502471125655
ONEWEB-0675             
1 55834U 23029AQ  25276.18830308  .00000054  00000+0  10377-3 0  9993
2 55834  87.9270 356.1115 0002205 103.1440 256.9939 13.19727127125027
ONEWEB-0720             
1 55835U 23029AR  25276.25621238 -.00000090  00000+0 -25777-3 0  9994
2 55835  87.9273 356.0947 0001656 111.2787 248.8523 13.19726976124957
ONEWEB-0537             
1 56046U 23043A   25276.02089641  .00000180  00000+0  43695-3 0  9993
2 56046  87.8984 280.0088 0002137  91.2704 268.8672 13.16595714125121
ONEWEB-0538             
1 56047U 23043B   25275.93854717  .00000025  00000+0  31416-4 0  9994
2 56047  87.8974 280.0357 0002054  97.7571 262.3793 13.16592221125124
ONEWEB-0546             
1 56048U 23043C   25276.30587751  .00000136  00000+0  32254-3 0  9991
2 56048  87.8981 279.9461 0002594  85.1820 274.9607 13.16593264125168
ONEWEB-0547             
1 56049U 23043D   25276.03308747  .00000080  00000+0  16105-3 0  9993
2 56049  87.9179 295.2880 0001879  97.4868 262.6480 13.21826601124250
ONEWEB-0548             
1 56050U 23043E   25276.02720537  .00000066  00000+0  13882-3 0  9992
2 56050  87.8961 280.0210 0001695  77.1138 283.0182 13.16592724125123
ONEWEB-0549             
1 56051U 23043F   25276.02441561  .00000200  00000+0  45329-3 0  9991
2 56051  87.9181 295.3053 0001928 101.1697 258.9654 13.21826460124251
ONEWEB-0550             
1 56052U 23043G   25276.31458334  .00000095  00000+0  19862-3 0  9995
2 56052  87.9181 295.2417 0001892  87.9215 272.2136 13.21826219124292
ONEWEB-0551             
1 56053U 23043H   25276.08146732  .00000179  00000+0  44075-3 0  9993
2 56053  87.8994 310.5454 0001811 102.2965 257.8368 13.15547800122596
ONEWEB-0552             
1 56054U 23043J   25276.30825565  .00000098  00000+0  20498-3 0  9990
2 56054  87.9178 295.2515 0001695  98.8164 261.3162 13.21827948124292
ONEWEB-0553             
1 56055U 23043K   25276.31220909  .00000280  00000+0  69949-3 0  9990
2 56055  87.8972 279.9592 0002251  84.3684 275.7704 13.16593833125170
ONEWEB-0554             
1 56056U 23043L   25275.99556502  .00000162  00000+0  38941-3 0  9992
2 56056  87.8959 280.0452 0001795  83.2277 276.9058 13.16595010125110
ONEWEB-0555             
1 56057U 23043M   25276.03354925  .00000030  00000+0  45526-4 0  9996
2 56057  87.8972 280.0092 0002377  82.5394 277.6007 13.16592911125125
ONEWEB-0557             
1 56058U 23043N   25276.04779956 -.00000084  00000+0 -25415-3 0  9998
2 56058  87.8960 280.0230 0002358  56.3739 303.7617 13.16593337125129
