[{"OBJECT_NAME":"ONEWEB-0674","OBJECT_ID":"2023-029AP","EPOCH":"2025-10-03T04:57:59.101920","MEAN_MOTION":13.14502471,"ECCENTRICITY":0.00014501,"INCLINATION":87.906,"RA_OF_ASC_NODE":340.9175,"ARG_OF_PERICENTER":89.0863,"MEAN_ANOMALY":271.0432,"EPHEMERIS_TYPE":0,"CLASSIFICATION_TYPE":"U","NORAD_CAT_ID":55833,"ELEMENT_SET_NO":999,"REV_AT_EPOCH":12565,"BSTAR":-0.00039261711,"MEAN_MOTION_DOT":-1.33e-6,"MEAN_MOTION_DDOT":0},{"OBJECT_NAME":"ONEWEB-0675","OBJECT_ID":"2023-029AQ","EPOCH":"2025-10-03T04:31:09.386112","MEAN_MOTION":13.19727127,"ECCENTRICITY":0.00022056,"INCLINATION":87.927,"RA_OF_ASC_NODE":356.1115,"ARG_OF_PERICENTER":103.144,"MEAN_ANOMALY":256.9939,"EPHEMERIS_TYPE":0,"CLASSIFICATION_TYPE":"U","NORAD_CAT_ID":55834,"ELEMENT_SET_NO":999,"REV_AT_EPOCH":12502,"BSTAR":0.00010377198,"MEAN_MOTION_DOT":5.4e-7,"MEAN_MOTION_DDOT":0},{"OBJECT_NAME":"ONEWEB-0720","OBJECT_ID":"2023-029AR","EPOCH":"2025-10-03T06:08:56.749632","MEAN_MOTION":13.19726976,"ECCENTRICITY":0.00016567,"INCLINATION":87.9273,"RA_OF_ASC_NODE":356.0947,"ARG_OF_PERICENTER":111.2787,"MEAN_ANOMALY":248.8523,"EPHEMERIS_TYPE":0,"CLASSIFICATION_TYPE":"U","NORAD_CAT_ID":55835,"ELEMENT_SET_NO":999,"REV_AT_EPOCH":12495,"BSTAR":-0.00025776617,"MEAN_MOTION_DOT":-9.0e-7,"MEAN_MOTION_DDOT":0},{"OBJECT_NAME":"ONEWEB-0537","OBJECT_ID":"2023-043A","EPOCH":"2025-10-03T00:30:05.449824","MEAN_MOTION":13.16595714,"ECCENTRICITY":0.0002137,"INCLINATION":87.8984,"RA_OF_ASC_NODE":280.0088,"ARG_OF_PERICENTER":91.2704,"MEAN_ANOMALY":268.8672,"EPHEMERIS_TYPE":0,"CLASSIFICATION_TYPE":"U","NORAD_CAT_ID":56046,"ELEMENT_SET_NO":999,"REV_AT_EPOCH":12512,"BSTAR":0.00043694993,"MEAN_MOTION_DOT":1.8e-6,"MEAN_MOTION_DDOT":0},{"OBJECT_NAME":"ONEWEB-0538","OBJECT_ID":"2023-043B","EPOCH":"2025-10-02T22:31:30.475488","MEAN_MOTION":13.16592221,"ECCENTRICITY":0.0002054,"INCLINATION":87.8974,"RA_OF_ASC_NODE":280.0357,"ARG_OF_PERICENTER":97.7571,"MEAN_ANOMALY":262.3793,"EPHEMERIS_TYPE":0,"CLASSIFICATION_TYPE":"U","NORAD_CAT_ID":56047,"ELEMENT_SET_NO":999,"REV_AT_EPOCH":12512,"BSTAR":3.1415796e-5,"MEAN_MOTION_DOT":2.5e-7,"MEAN_MOTION_DDOT":0},{"OBJECT_NAME":"ONEWEB-0546","OBJECT_ID":"2023-043C","EPOCH":"2025-10-03T07:20:27.816864","MEAN_MOTION":13.16593264,"ECCENTRICITY":0.00025941,"INCLINATION":87.8981,"RA_OF_ASC_NODE":279.9461,"ARG_OF_PERICENTER":85.182,"MEAN_ANOMALY":274.9607,"EPHEMERIS_TYPE":0,"CLASSIFICATION_TYPE":"U","NORAD_CAT_ID":56048,"ELEMENT_SET_NO":999,"REV_AT_EPOCH":12516,"BSTAR":0.00032253878,"MEAN_MOTION_DOT":1.36e-6,"MEAN_MOTION_DDOT":0},{"OBJECT_NAME":"ONEWEB-0547","OBJECT_ID":"2023-043D","EPOCH":"2025-10-03T00:47:38.757408","MEAN_MOTION":13.21826601,"ECCENTRICITY":0.00018798,"INCLINATION":87.9179,"RA_OF_ASC_NODE":295.288,"ARG_OF_PERICENTER":97.4868,"MEAN_ANOMALY":262.648,"EPHEMERIS_TYPE":0,"CLASSIFICATION_TYPE":"U","NORAD_CAT_ID":56049,"ELEMENT_SET_NO":999,"REV_AT_EPOCH":12425,"BSTAR":0.00016104589,"MEAN_MOTION_DOT":8.0e-7,"MEAN_MOTION_DDOT":0},{"OBJECT_NAME":"ONEWEB-0548","OBJECT_ID":"2023-043E","EPOCH":"2025-10-03T00:39:10.543968","MEAN_MOTION":13.16592724,"ECCENTRICITY":0.00016951,"INCLINATION":87.8961,"RA_OF_ASC_NODE":280.021,"ARG_OF_PERICENTER":77.1138,"MEAN_ANOMALY":283.0182,"EPHEMERIS_TYPE":0,"CLASSIFICATION_TYPE":"U","NORAD_CAT_ID":56050,"ELEMENT_SET_NO":999,"REV_AT_EPOCH":12512,"BSTAR":0.00013881679,"MEAN_MOTION_DOT":6.6e-7,"MEAN_MOTION_DDOT":0},{"OBJECT_NAME":"ONEWEB-0549","OBJECT_ID":"2023-043F","EPOCH":"2025-10-03T00:35:09.508704","MEAN_MOTION":13.2182646,"ECCENTRICITY":0.00019284,"INCLINATION":87.9181,"RA_OF_ASC_NODE":295.3053,"ARG_OF_PERICENTER":101.1697,"MEAN_ANOMALY":258.9654,"EPHEMERIS_TYPE":0,"CLASSIFICATION_TYPE":"U","NORAD_CAT_ID":56051,"ELEMENT_SET_NO":999,"REV_AT_EPOCH":12425,"BSTAR":0.00045329367,"MEAN_MOTION_DOT":2.0e-6,"MEAN_MOTION_DDOT":0},{"OBJECT_NAME":"ONEWEB-0550","OBJECT_ID":"2023-043G","EPOCH":"2025-10-03T07:33:00.000576","MEAN_MOTION":13.21826219,"ECCENTRICITY":0.00018921,"INCLINATION":87.9181,"RA_OF_ASC_NODE":295.2417,"ARG_OF_PERICENTER":87.9215,"MEAN_ANOMALY":272.2136,"EPHEMERIS_TYPE":0,"CLASSIFICATION_TYPE":"U","NORAD_CAT_ID":56052,"ELEMENT_SET_NO":999,"REV_AT_EPOCH":12429,"BSTAR":0.00019862478,"MEAN_MOTION_DOT":9.5e-7,"MEAN_MOTION_DDOT":0},{"OBJECT_NAME":"ONEWEB-0551","OBJECT_ID":"2023-043H","EPOCH":"2025-10-03T01:57:18.776448","MEAN_MOTION":13.155478,"ECCENTRICITY":0.00018114,"INCLINATION":87.8994,"RA_OF_ASC_NODE":310.5454,"ARG_OF_PERICENTER":102.2965,"MEAN_ANOMALY":257.8368,"EPHEMERIS_TYPE":0,"CLASSIFICATION_TYPE":"U","NORAD_CAT_ID":56053,"ELEMENT_SET_NO":999,"REV_AT_EPOCH":12259,"BSTAR":0.00044075072,"MEAN_MOTION_DOT":1.79e-6,"MEAN_MOTION_DDOT":0},{"OBJECT_NAME":"ONEWEB-0552","OBJECT_ID":"2023-043J","EPOCH":"2025-10-03T07:23:53.288160","MEAN_MOTION":13.21827948,"ECCENTRICITY":0.00016951,"INCLINATION":87.9178,"RA_OF_ASC_NODE":295.2515,"ARG_OF_PERICENTER":98.8164,"MEAN_ANOMALY":261.3162,"EPHEMERIS_TYPE":0,"CLASSIFICATION_TYPE":"U","NORAD_CAT_ID":56054,"ELEMENT_SET_NO":999,"REV_AT_EPOCH":12429,"BSTAR":0.00020497836,"MEAN_MOTION_DOT":9.8e-7,"MEAN_MOTION_DDOT":0},{"OBJECT_NAME":"ONEWEB-0553","OBJECT_ID":"2023-043K","EPOCH":"2025-10-03T07:29:34.865376","MEAN_MOTION":13.16593833,"ECCENTRICITY":0.00022515,"INCLINATION":87.8972,"RA_OF_ASC_NODE":279.9592,"ARG_OF_PERICENTER":84.3684,"MEAN_ANOMALY":275.7704,"EPHEMERIS_TYPE":0,"CLASSIFICATION_TYPE":"U","NORAD_CAT_ID":56055,"ELEMENT_SET_NO":999,"REV_AT_EPOCH":12517,"BSTAR":0.00069948629,"MEAN_MOTION_DOT":2.8e-6,"MEAN_MOTION_DDOT":0},{"OBJECT_NAME":"ONEWEB-0554","OBJECT_ID":"2023-043L","EPOCH":"2025-10-02T23:53:36.817728","MEAN_MOTION":13.1659501,"ECCENTRICITY":0.00017957,"INCLINATION":87.8959,"RA_OF_ASC_NODE":280.0452,"ARG_OF_PERICENTER":83.2277,"MEAN_ANOMALY":276.9058,"EPHEMERIS_TYPE":0,"CLASSIFICATION_TYPE":"U","NORAD_CAT_ID":56056,"ELEMENT_SET_NO":999,"REV_AT_EPOCH":12511,"BSTAR":0.00038941431,"MEAN_MOTION_DOT":1.62e-6,"MEAN_MOTION_DDOT":0},{"OBJECT_NAME":"ONEWEB-0555","OBJECT_ID":"2023-043M","EPOCH":"2025-10-03T00:48:18.655200","MEAN_MOTION":13.16592911,"ECCENTRICITY":0.00023774,"INCLINATION":87.8972,"RA_OF_ASC_NODE":280.0092,"ARG_OF_PERICENTER":82.5394,"MEAN_ANOMALY":277.6007,"EPHEMERIS_TYPE":0,"CLASSIFICATION_TYPE":"U","NORAD_CAT_ID":56057,"ELEMENT_SET_NO":999,"REV_AT_EPOCH":12512,"BSTAR":4.5526486e-5,"MEAN_MOTION_DOT":3.0e-7,"MEAN_MOTION_DDOT":0},{"OBJECT_NAME":"ONEWEB-0557","OBJECT_ID":"2023-043N","EPOCH":"2025-10-03T01:08:49.881984","MEAN_MOTION":13.16593337,"ECCENTRICITY":0.00023589,"INCLINATION":87.896,"RA_OF_ASC_NODE":280.023,"ARG_OF_PERICENTER":56.3739,"MEAN_ANOMALY":303.7617,"EPHEMERIS_TYPE":0,"CLASSIFICATION_TYPE":"U","NORAD_CAT_ID":56058,"ELEMENT_SET_NO":999,"REV_AT_EPOCH":12512,"BSTAR":-0.00025414757,"MEAN_MOTION_DOT":-8.4e-7,"MEAN_MOTION_DDOT":0}]
